CCSDS_OMM_VERS = 2.0
CREATION_DATE  = 
ORIGINATOR     = 

OBJECT_NAME    = SL-3 R/B
OBJECT_ID      = 1982-079B
CENTER_NAME    = EARTH
REF_FRAME      = TEME
TIME_SYSTEM    = UTC
MEAN_ELEMENT_THEORY = SGP/SGP4

EPOCH          = 2026-03-12T16:27:06.679008
MEAN_MOTION    = 15.24848520
ECCENTRICITY   = .0025181
INCLINATION    = 81.1477
RA_OF_ASC_NODE = 189.5401
ARG_OF_PERICENTER = 154.6688
MEAN_ANOMALY   = 205.5786

EPHEMERIS_TYPE = 0
CLASSIFICATION_TYPE = U
NORAD_CAT_ID   = 13403
ELEMENT_SET_NO = 999
REV_AT_EPOCH   = 37815
BSTAR          = .29359E-3
MEAN_MOTION_DOT = .7384E-4
MEAN_MOTION_DDOT = 0

CCSDS_OMM_VERS = 2.0
CREATION_DATE  = 
ORIGINATOR     = 

OBJECT_NAME    = SL-14 R/B
OBJECT_ID      = 1982-092B
CENTER_NAME    = EARTH
REF_FRAME      = TEME
TIME_SYSTEM    = UTC
MEAN_ELEMENT_THEORY = SGP/SGP4

EPOCH          = 2026-03-12T14:58:05.038752
MEAN_MOTION    = 14.86669692
ECCENTRICITY   = .0018873
INCLINATION    = 82.5690
RA_OF_ASC_NODE = 138.6556
ARG_OF_PERICENTER = 293.1248
MEAN_ANOMALY   = 227.8144

EPHEMERIS_TYPE = 0
CLASSIFICATION_TYPE = U
NORAD_CAT_ID   = 13553
ELEMENT_SET_NO = 999
REV_AT_EPOCH   = 32936
BSTAR          = .59406E-4
MEAN_MOTION_DOT = .553E-5
MEAN_MOTION_DDOT = 0

CCSDS_OMM_VERS = 2.0
CREATION_DATE  = 
ORIGINATOR     = 

OBJECT_NAME    = SL-3 R/B
OBJECT_ID      = 1983-010B
CENTER_NAME    = EARTH
REF_FRAME      = TEME
TIME_SYSTEM    = UTC
MEAN_ELEMENT_THEORY = SGP/SGP4

EPOCH          = 2026-03-12T17:41:56.634720
MEAN_MOTION    = 15.46474228
ECCENTRICITY   = .0017733
INCLINATION    = 81.1062
RA_OF_ASC_NODE = 358.5108
ARG_OF_PERICENTER = 41.1623
MEAN_ANOMALY   = 319.0955

EPHEMERIS_TYPE = 0
CLASSIFICATION_TYPE = U
NORAD_CAT_ID   = 13819
ELEMENT_SET_NO = 999
REV_AT_EPOCH   = 35841
BSTAR          = .35449E-3
MEAN_MOTION_DOT = .17725E-3
MEAN_MOTION_DDOT = 0

CCSDS_OMM_VERS = 2.0
CREATION_DATE  = 
ORIGINATOR     = 

OBJECT_NAME    = SL-3 R/B
OBJECT_ID      = 1983-075B
CENTER_NAME    = EARTH
REF_FRAME      = TEME
TIME_SYSTEM    = UTC
MEAN_ELEMENT_THEORY = SGP/SGP4

EPOCH          = 2026-03-12T16:17:49.656480
MEAN_MOTION    = 15.38496671
ECCENTRICITY   = .0020417
INCLINATION    = 97.6146
RA_OF_ASC_NODE = 76.3696
ARG_OF_PERICENTER = 214.5166
MEAN_ANOMALY   = 145.4754

EPHEMERIS_TYPE = 0
CLASSIFICATION_TYPE = U
NORAD_CAT_ID   = 14208
ELEMENT_SET_NO = 999
REV_AT_EPOCH   = 33061
BSTAR          = .3295E-3
MEAN_MOTION_DOT = .12522E-3
MEAN_MOTION_DDOT = 0

CCSDS_OMM_VERS = 2.0
CREATION_DATE  = 
ORIGINATOR     = 

OBJECT_NAME    = COSMOS 1536
OBJECT_ID      = 1984-013A
CENTER_NAME    = EARTH
REF_FRAME      = TEME
TIME_SYSTEM    = UTC
MEAN_ELEMENT_THEORY = SGP/SGP4

EPOCH          = 2026-03-12T13:02:41.154432
MEAN_MOTION    = 15.23867314
ECCENTRICITY   = .0012526
INCLINATION    = 82.5430
RA_OF_ASC_NODE = 105.0133
ARG_OF_PERICENTER = 272.1389
MEAN_ANOMALY   = 87.8414

EPHEMERIS_TYPE = 0
CLASSIFICATION_TYPE = U
NORAD_CAT_ID   = 14699
ELEMENT_SET_NO = 999
REV_AT_EPOCH   = 27305
BSTAR          = .26945E-3
MEAN_MOTION_DOT = .6544E-4
MEAN_MOTION_DDOT = 0

CCSDS_OMM_VERS = 2.0
CREATION_DATE  = 
ORIGINATOR     = 

OBJECT_NAME    = SL-14 R/B
OBJECT_ID      = 1984-027B
CENTER_NAME    = EARTH
REF_FRAME      = TEME
TIME_SYSTEM    = UTC
MEAN_ELEMENT_THEORY = SGP/SGP4

EPOCH          = 2026-03-12T12:30:41.380992
MEAN_MOTION    = 14.85980010
ECCENTRICITY   = .0017146
INCLINATION    = 82.5390
RA_OF_ASC_NODE = 242.3562
ARG_OF_PERICENTER = 328.1982
MEAN_ANOMALY   = 31.8197

EPHEMERIS_TYPE = 0
CLASSIFICATION_TYPE = U
NORAD_CAT_ID   = 14820
ELEMENT_SET_NO = 999
REV_AT_EPOCH   = 24805
BSTAR          = .70929E-4
MEAN_MOTION_DOT = .645E-5
MEAN_MOTION_DDOT = 0

CCSDS_OMM_VERS = 2.0
CREATION_DATE  = 
ORIGINATOR     = 

OBJECT_NAME    = SL-8 R/B
OBJECT_ID      = 1985-006B
CENTER_NAME    = EARTH
REF_FRAME      = TEME
TIME_SYSTEM    = UTC
MEAN_ELEMENT_THEORY = SGP/SGP4

EPOCH          = 2026-03-12T15:38:51.256032
MEAN_MOTION    = 14.37785551
ECCENTRICITY   = .0018341
INCLINATION    = 74.0432
RA_OF_ASC_NODE = 255.6969
ARG_OF_PERICENTER = 172.7980
MEAN_ANOMALY   = 259.1656

EPHEMERIS_TYPE = 0
CLASSIFICATION_TYPE = U
NORAD_CAT_ID   = 15483
ELEMENT_SET_NO = 999
REV_AT_EPOCH   = 15445
BSTAR          = .14363E-3
MEAN_MOTION_DOT = .407E-5
MEAN_MOTION_DDOT = 0

CCSDS_OMM_VERS = 2.0
CREATION_DATE  = 
ORIGINATOR     = 

OBJECT_NAME    = SL-12 R/B(2)
OBJECT_ID      = 1985-042D
CENTER_NAME    = EARTH
REF_FRAME      = TEME
TIME_SYSTEM    = UTC
MEAN_ELEMENT_THEORY = SGP/SGP4

EPOCH          = 2026-03-12T10:55:42.119040
MEAN_MOTION    = 14.21983223
ECCENTRICITY   = .0033115
INCLINATION    = 71.1063
RA_OF_ASC_NODE = 81.8850
ARG_OF_PERICENTER = 123.5864
MEAN_ANOMALY   = 28.0577

EPHEMERIS_TYPE = 0
CLASSIFICATION_TYPE = U
NORAD_CAT_ID   = 15772
ELEMENT_SET_NO = 999
REV_AT_EPOCH   = 11478
BSTAR          = .93673E-4
MEAN_MOTION_DOT = .161E-5
MEAN_MOTION_DDOT = 0

CCSDS_OMM_VERS = 2.0
CREATION_DATE  = 
ORIGINATOR     = 

OBJECT_NAME    = SL-14 R/B
OBJECT_ID      = 1985-069B
CENTER_NAME    = EARTH
REF_FRAME      = TEME
TIME_SYSTEM    = UTC
MEAN_ELEMENT_THEORY = SGP/SGP4

EPOCH          = 2026-03-12T13:44:28.701888
MEAN_MOTION    = 14.86437192
ECCENTRICITY   = .0018733
INCLINATION    = 82.5289
RA_OF_ASC_NODE = 22.2224
ARG_OF_PERICENTER = 178.0728
MEAN_ANOMALY   = 182.0564

EPHEMERIS_TYPE = 0
CLASSIFICATION_TYPE = U
NORAD_CAT_ID   = 15945
ELEMENT_SET_NO = 999
REV_AT_EPOCH   = 17326
BSTAR          = .74935E-4
MEAN_MOTION_DOT = .688E-5
MEAN_MOTION_DDOT = 0

CCSDS_OMM_VERS = 2.0
CREATION_DATE  = 
ORIGINATOR     = 

OBJECT_NAME    = SL-16 R/B
OBJECT_ID      = 1985-097B
CENTER_NAME    = EARTH
REF_FRAME      = TEME
TIME_SYSTEM    = UTC
MEAN_ELEMENT_THEORY = SGP/SGP4

EPOCH          = 2026-03-12T14:51:20.909664
MEAN_MOTION    = 14.16598266
ECCENTRICITY   = .0009838
INCLINATION    = 71.0022
RA_OF_ASC_NODE = 134.3878
ARG_OF_PERICENTER = 256.2098
MEAN_ANOMALY   = 265.4106

EPHEMERIS_TYPE = 0
CLASSIFICATION_TYPE = U
NORAD_CAT_ID   = 16182
ELEMENT_SET_NO = 999
REV_AT_EPOCH   = 8764
BSTAR          = -.36132E-4
MEAN_MOTION_DOT = -.12E-5
MEAN_MOTION_DDOT = 0

CCSDS_OMM_VERS = 2.0
CREATION_DATE  = 
ORIGINATOR     = 

OBJECT_NAME    = SL-14 R/B
OBJECT_ID      = 1986-006B
CENTER_NAME    = EARTH
REF_FRAME      = TEME
TIME_SYSTEM    = UTC
MEAN_ELEMENT_THEORY = SGP/SGP4

EPOCH          = 2026-03-12T14:47:17.081088
MEAN_MOTION    = 14.86819773
ECCENTRICITY   = .007506
INCLINATION    = 82.5236
RA_OF_ASC_NODE = 256.9821
ARG_OF_PERICENTER = 262.8934
MEAN_ANOMALY   = 96.3743

EPHEMERIS_TYPE = 0
CLASSIFICATION_TYPE = U
NORAD_CAT_ID   = 16496
ELEMENT_SET_NO = 999
REV_AT_EPOCH   = 14964
BSTAR          = .87591E-4
MEAN_MOTION_DOT = .847E-5
MEAN_MOTION_DDOT = 0

CCSDS_OMM_VERS = 2.0
CREATION_DATE  = 
ORIGINATOR     = 

OBJECT_NAME    = COSMOS 1743
OBJECT_ID      = 1986-034A
CENTER_NAME    = EARTH
REF_FRAME      = TEME
TIME_SYSTEM    = UTC
MEAN_ELEMENT_THEORY = SGP/SGP4

EPOCH          = 2026-03-12T11:12:17.559360
MEAN_MOTION    = 15.58770351
ECCENTRICITY   = .0001481
INCLINATION    = 82.5293
RA_OF_ASC_NODE = 70.9157
ARG_OF_PERICENTER = 265.4686
MEAN_ANOMALY   = 94.6401

EPHEMERIS_TYPE = 0
CLASSIFICATION_TYPE = U
NORAD_CAT_ID   = 16719
ELEMENT_SET_NO = 999
REV_AT_EPOCH   = 18068
BSTAR          = .51147E-3
MEAN_MOTION_DOT = .39581E-3
MEAN_MOTION_DDOT = 0

