SL-3 R/B                
1 13403U 82079B   26071.68549397  .00007384  00000+0  29359-3 0  9996
2 13403  81.1477 189.5401 0025181 154.6688 205.5786 15.24848520378150
SL-14 R/B               
1 13553U 82092B   26071.62366943  .00000553  00000+0  59406-4 0  9993
2 13553  82.5690 138.6556 0018873 293.1248 227.8144 14.86669692329367
SL-3 R/B                
1 13819U 83010B   26071.73746105  .00017725  00000+0  35449-3 0  9992
2 13819  81.1062 358.5108 0017733  41.1623 319.0955 15.46474228358416
SL-3 R/B                
1 14208U 83075B   26071.67904695  .00012522  00000+0  32950-3 0  9993
2 14208  97.6146  76.3696 0020417 214.5166 145.4754 15.38496671330619
COSMOS 1536             
1 14699U 84013A   26071.54353188  .00006544  00000+0  26945-3 0  9995
2 14699  82.5430 105.0133 0012526 272.1389  87.8414 15.23867314273053
SL-14 R/B               
1 14820U 84027B   26071.52131228  .00000645  00000+0  70929-4 0  9991
2 14820  82.5390 242.3562 0017146 328.1982  31.8197 14.85980010248054
SL-8 R/B                
1 15483U 85006B   26071.65198213  .00000407  00000+0  14363-3 0  9991
2 15483  74.0432 255.6969 0018341 172.7980 259.1656 14.37785551154455
SL-12 R/B(2)            
1 15772U 85042D   26071.45534860  .00000161  00000+0  93673-4 0  9991
2 15772  71.1063  81.8850 0033115 123.5864  28.0577 14.21983223114789
SL-14 R/B               
1 15945U 85069B   26071.57255442  .00000688  00000+0  74935-4 0  9995
2 15945  82.5289  22.2224 0018733 178.0728 182.0564 14.86437192173269
SL-16 R/B               
1 16182U 85097B   26071.61899201 -.00000120  00000+0 -36132-4 0  9992
2 16182  71.0022 134.3878 0009838 256.2098 265.4106 14.16598266 87643
SL-14 R/B               
1 16496U 86006B   26071.61616992  .00000847  00000+0  87591-4 0  9994
2 16496  82.5236 256.9821 0075060 262.8934  96.3743 14.86819773149649
COSMOS 1743             
1 16719U 86034A   26071.46686990  .00039581  00000+0  51147-3 0  9995
2 16719  82.5293  70.9157 0001481 265.4686  94.6401 15.58770351180684
